{
    "links": {
        "self": "http://www.neowsapp.com/rest/v1/neo/3092267?api_key=iIulBulltgU6a56xZRHN4H3l9WmuAYTsLGpBGhQ2"
    },
    "id": "3092267",
    "neo_reference_id": "3092267",
    "name": "(2000 PN)",
    "designation": "2000 PN",
    "nasa_jpl_url": "http://ssd.jpl.nasa.gov/sbdb.cgi?sstr=3092267",
    "absolute_magnitude_h": 22.573,
    "estimated_diameter": {
        "kilometers": {
            "estimated_diameter_min": 0.0812746254,
            "estimated_diameter_max": 0.1817355873
        },
        "meters": {
            "estimated_diameter_min": 81.2746254234,
            "estimated_diameter_max": 181.7355872926
        },
        "miles": {
            "estimated_diameter_min": 0.0505016953,
            "estimated_diameter_max": 0.1129252236
        },
        "feet": {
            "estimated_diameter_min": 266.6490420742,
            "estimated_diameter_max": 596.2453842132
        }
    },
    "is_potentially_hazardous_asteroid": false,
    "close_approach_data": [
        {
            "close_approach_date": "1998-07-27",
            "close_approach_date_full": "1998-Jul-27 01:04",
            "epoch_date_close_approach": 901501440000,
            "relative_velocity": {
                "kilometers_per_second": "18.8046849236",
                "kilometers_per_hour": "67696.8657250468",
                "miles_per_hour": "42064.1997056547"
            },
            "miss_distance": {
                "astronomical": "0.3940523991",
                "lunar": "153.2863832499",
                "kilometers": "58949399.573749917",
                "miles": "36629458.3645741746"
            },
            "orbiting_body": "Earth"
        },
        {
            "close_approach_date": "1999-07-25",
            "close_approach_date_full": "1999-Jul-25 01:06",
            "epoch_date_close_approach": 932864760000,
            "relative_velocity": {
                "kilometers_per_second": "21.0309048675",
                "kilometers_per_hour": "75711.2575231458",
                "miles_per_hour": "47044.0310982013"
            },
            "miss_distance": {
                "astronomical": "0.2279308769",
                "lunar": "88.6651111141",
                "kilometers": "34097973.691472203",
                "miles": "21187498.3745262814"
            },
            "orbiting_body": "Earth"
        },
        {
            "close_approach_date": "2000-07-27",
            "close_approach_date_full": "2000-Jul-27 16:18",
            "epoch_date_close_approach": 964714680000,
            "relative_velocity": {
                "kilometers_per_second": "25.2585915265",
                "kilometers_per_hour": "90930.9294953089",
                "miles_per_hour": "56500.9433855713"
            },
            "miss_distance": {
                "astronomical": "0.0521271296",
                "lunar": "20.2774534144",
                "kilometers": "7798107.557373952",
                "miles": "4845519.3464344576"
            },
            "orbiting_body": "Earth"
        },
        {
            "close_approach_date": "2001-08-03",
            "close_approach_date_full": "2001-Aug-03 04:58",
            "epoch_date_close_approach": 996814680000,
            "relative_velocity": {
                "kilometers_per_second": "30.3706178747",
                "kilometers_per_hour": "109334.2243489592",
                "miles_per_hour": "67936.0351239408"
            },
            "miss_distance": {
                "astronomical": "0.1315114331",
                "lunar": "51.1579474759",
                "kilometers": "19673830.272407497",
                "miles": "12224751.2620255786"
            },
            "orbiting_body": "Earth"
        }
    ],
    "orbital_data": {
        "orbit_id": "12",
        "orbit_determination_date": "2017-04-06 09:16:56",
        "first_observation_date": "2000-08-01",
        "last_observation_date": "2000-08-03",
        "data_arc_in_days": 2,
        "observations_used": 22,
        "orbit_uncertainty": "9",
        "minimum_orbit_intersection": ".0190758",
        "jupiter_tisserand_invariant": "5.622",
        "epoch_osculation": "2451759.5",
        "eccentricity": ".7623486605488742",
        "semi_major_axis": "1.02150830257485",
        "inclination": "22.86591327196183",
        "ascending_node_longitude": "128.7946167644407",
        "orbital_period": "377.1041207374926",
        "perihelion_distance": ".2427628163673591",
        "perihelion_argument": "37.71302926344482",
        "aphelion_distance": "1.800253788782342",
        "perihelion_time": "2451702.996515209546",
        "mean_anomaly": "53.94068482938502",
        "mean_motion": ".954643506138192",
        "equinox": "J2000",
        "orbit_class": {
            "orbit_class_type": "APO",
            "orbit_class_description": "Near-Earth asteroid orbits which cross the Earth’s orbit similar to that of 1862 Apollo",
            "orbit_class_range": "a (semi-major axis) > 1.0 AU; q (perihelion) < 1.017 AU"
        }
    },
    "is_sentry_object": false
}